satname,norad_id,inclination_deg,eccentricity,mean_motion_rev_per_day,perigee_km,apogee_km,l1,l2
STARLINK-1168,45072,53.0535,0.0001129,15.06397461,546.4374668877808,548.001212349267,1 45072U 20006AE  25294.79664481  .00005623  00000+0  39612-3 0  9992,2 45072  53.0535 170.1340 0001129  95.0234 265.0884 15.06397461315805
STARLINK-1172,45074,53.0539,0.0001165,15.0639631,546.4160628553682,548.0296717044439,1 45074U 20006AG  25294.80770206  .00007225  00000+0  50351-3 0  9992,2 45074  53.0539 170.0852 0001165  97.9835 262.1287 15.06396310315803
STARLINK-1153,45080,53.0535,0.0001167,15.06398309,546.4085518330476,548.0249293961069,1 45080U 20006AN  25294.85193546  .00006368  00000+0  44603-3 0  9990,2 45080  53.0535 169.8880 0001167  89.9391 270.1732 15.06398309315818
STARLINK-1151,45081,53.0538,0.0001549,15.06399575,546.1401238089811,548.2855971957651,1 45081U 20006AP  25294.83720199  .00009418  00000+0  65032-3 0  9997,2 45081  53.0538 170.0274 0001549  81.0409 279.0755 15.06399575315819
STARLINK-1190,45083,53.0416,0.0004535,15.84926218,313.49646429115546,319.56852952485133,1 45083U 20006AR  25294.91667823  .00269178  00000+0  10951-2 0  9992,2 45083  53.0416 125.9397 0004535 169.8669 327.7974 15.84926218  5931
STARLINK-1173,45084,53.0354,0.0004767,16.07620932,250.21650493608922,256.5389910968488,1 45084U 20006AS  25294.82561830  .00762518  31464-3  92222-3 0  9994,2 45084  53.0354  87.0186 0004767 333.4384  26.6404 16.07620932316979
STARLINK-1185,45087,53.0531,0.0001603,15.06404495,546.0876502794672,548.3079126103976,1 45087U 20006AV  25294.81322688 -.00000195  00000+0  57848-5 0  9994,2 45087  53.0531 150.0561 0001603  97.4709 262.6462 15.06404495316092
STARLINK-1183,45088,53.0524,0.0001175,15.06381783,546.4536559662693,548.0811259981501,1 45088U 20006AW  25294.83536417  .00040742  00000+0  27397-2 0  9998,2 45088  53.0524 149.9608 0001175 100.3807 259.7314 15.06381783316098
STARLINK-1176,45090,53.0417,0.000639,16.02426096,263.4556049393459,271.9489875599529,1 45090U 20006AY  25294.79884955  .00609603  18251-3  10116-2 0  9998,2 45090  53.0417  85.6498 0006390 340.1865  19.8916 16.02426096316993
STARLINK-1142,45093,53.0335,0.0002113,15.57972151,392.0958385628519,394.9575436387113,1 45093U 20006BB  25294.91667823  .00178748  00000+0  22994-2 0  9995,2 45093  53.0335  86.5248 0002113 259.8161 127.2664 15.57972151  6023
STARLINK-1152,45096,53.0489,0.0009011,15.23052905,490.4435532717871,502.83327352181095,1 45096U 20006BE  25294.81719622  .00011497  00000+0  49477-3 0  9995,2 45096  53.0489 133.4160 0009011 132.5440 227.6319 15.23052905316320
STARLINK-1184,45098,53.0528,0.0001422,15.06395469,546.2406582958465,548.2102313751566,1 45098U 20006BG  25294.85008855  .00001381  00000+0  11163-3 0  9992,2 45098  53.0528 149.8938 0001422 100.5142 259.6007 15.06395469316091
STARLINK-1193,45100,53.0535,0.0001422,15.06395278,546.2412436030909,548.2108168488876,1 45100U 20006BJ  25294.84641064 -.00002113  00000+0 -12301-3 0  9991,2 45100  53.0535 149.9093 0001422  91.7376 268.3776 15.06395278316094
STARLINK-1143,45179,53.0534,0.0007995,15.3900058,443.6050746522651,454.5217681260665,1 45179U 20012B   25294.19741840  .00033656  00000+0  86418-3 0  9999,2 45179  53.0534 278.9431 0007995   8.2059 351.9073 15.39000580314294
STARLINK-1202,45183,53.0544,0.0001508,15.06391298,546.1938818588997,548.2825750277971,1 45183U 20012F   25294.44464614  .00003881  00000+0  27933-3 0  9997,2 45183  53.0544 311.7176 0001508  91.4799 268.6363 15.06391298313851
STARLINK-1216,45185,53.0527,0.0001552,15.06355308,546.2737005128483,548.4233712231826,1 45185U 20012H   25294.37092718 -.00009516  00000+0 -62156-3 0  9992,2 45185  53.0527 312.0455 0001552  69.9725 290.1431 15.06355308313786
STARLINK-1225,45187,53.0546,8.51e-05,15.06384789,546.6688267251466,547.8475289844173,1 45187U 20012K   25294.32301220  .00007274  00000+0  50688-3 0  9994,2 45187  53.0546 312.2606 0000851  81.8222 278.2863 15.06384789313821
STARLINK-1230,45189,53.0544,0.0001484,15.06387449,546.2222977781448,548.2777526472282,1 45189U 20012M   25294.32669717  .00008883  00000+0  61467-3 0  9998,2 45189  53.0544 312.2462 0001484  78.1956 281.9199 15.06387449311059
STARLINK-1234,45190,53.0565,0.0001337,15.30197278,474.30690257441074,476.13949109104396,1 45190U 20012N   25294.91667823  .01121739  00000+0  35003-1 0  9993,2 45190  53.0565 268.5019 0001337  86.1664 337.4662 15.30197278  5695
STARLINK-1269,45197,53.054,0.0001382,15.0639566,546.2677744361636,548.1819444541143,1 45197U 20012V   25294.33774466  .00000361  00000+0  43161-4 0  9991,2 45197  53.0540 312.1983 0001382  96.9675 263.1472 15.06395660313809
STARLINK-1154,45198,53.056,0.0001661,15.06401135,546.0577795112558,548.358379146609,1 45198U 20012W   25294.26218113  .00000266  00000+0  36739-4 0  9993,2 45198  53.0560 292.5347 0001661  92.9485 267.1695 15.06401135314045
STARLINK-1199,45201,53.0554,0.0001725,15.06433253,545.9150391112125,548.3042492034465,1 45201U 20012Z   25294.40594402  .00023746  00000+0  16062-2 0  9995,2 45201  53.0554 291.8889 0001725  92.0864 268.0323 15.06433253314122
STARLINK-1209,45206,53.0557,9.85e-05,15.28045638,480.97947290444245,482.3308519604416,1 45206U 20012AE  25294.91667823  .01845375  00000+0  60561-1 0  9997,2 45206  53.0557 268.7852 0000985  66.8060 192.3853 15.28045638  5749
STARLINK-1210,45207,53.0254,0.0012529,15.53961959,396.6729584760742,413.67057358198963,1 45207U 20012AF  25294.91667823  .00142232  00000+0  21268-2 0  9991,2 45207  53.0254 232.7850 0012529  28.8134 263.8467 15.53961959  5702
STARLINK-1231,45212,53.0508,0.0005039,15.11421536,528.3819501014623,535.3458490080338,1 45212U 20012AL  25294.25965625  .00046988  00000+0  27479-2 0  9996,2 45212  53.0508 291.2737 0005039   0.6611 359.4385 15.11421536314070
STARLINK-1271,45217,53.0538,0.0001349,15.06408008,546.2527884707861,548.1212408899464,1 45217U 20012AR  25294.25850484  .00003046  00000+0  22324-3 0  9990,2 45217  53.0538 292.5497 0001349  86.0110 274.1033 15.06408008314107
STARLINK-1191,45222,53.0563,0.0001911,15.06397154,545.8968447558018,548.5437163084216,1 45222U 20012AW  25294.33405547  .00002794  00000+0  20643-3 0  9992,2 45222  53.0563 272.2107 0001911  92.1847 267.9360 15.06397154314397
STARLINK-1212,45223,53.0536,0.0001492,15.06401011,546.1751978280836,548.24172091316,1 45223U 20012AX  25294.35256383  .00005277  00000+0  37287-3 0  9998,2 45223  53.0536 272.7817 0001492  91.2258 268.8902 15.06401011314391
STARLINK-1215,45225,53.0543,0.0001315,15.06390714,546.3293312591386,548.1507054149597,1 45225U 20012AZ  25294.24190566 -.00001960  00000+0 -11278-3 0  9997,2 45225  53.0543 272.6225 0001315  92.0852 268.0288 15.06390714314336
STARLINK-1221,45227,53.0682,0.0001648,15.3634958,455.7883895187515,458.0412225940281,1 45227U 20012BB  25294.17278342  .00023416  00000+0  65976-3 0  9992,2 45227  53.0682 207.9398 0001648 315.2142  44.8727 15.36349580315220
STARLINK-1222,45228,53.0531,0.0001491,15.06406233,546.1598881351592,548.2250213785674,1 45228U 20012BC  25294.20873095  .00000675  00000+0  64213-4 0  9999,2 45228  53.0531 272.7733 0001491  93.6884 266.4276 15.06406233314263
STARLINK-1226,45229,53.0549,0.0001436,15.06414007,546.1741549449953,548.1631027215954,1 45229U 20012BD  25294.37091534  .00002833  00000+0  20893-3 0  9991,2 45229  53.0549 272.0430 0001436  94.0595 266.0558 15.06414007314293
STARLINK-1227,45230,53.055,0.0001611,15.06405392,546.0793612937614,548.3107032745629,1 45230U 20012BE  25294.16818929  .00000589  00000+0  58450-4 0  9992,2 45230  53.0550 272.9534 0001611  97.3114 262.8058 15.06405392314385
STARLINK-1246,45235,53.0546,0.000126,15.06385152,546.3844656413376,548.1296649457918,1 45235U 20012BK  25294.05024691  .00003412  00000+0  24791-3 0  9998,2 45235  53.0546 313.4835 0001260 101.0508 259.0623 15.06385152313814
STARLINK-1270,45237,53.0539,0.0001596,15.06405914,546.088149702332,548.2987151763664,1 45237U 20012BM  25294.31930664  .00000124  00000+0  27225-4 0  9998,2 45237  53.0539 272.2762 0001596 101.0695 259.0474 15.06405914314395
STARLINK-1279,45360,53.0533,9.03e-05,15.27570134,482.4590707797688,483.6982063240912,1 45360U 20019A   25294.91667823 -.00012980  00000+0 -46312-3 0  9994,2 45360  53.0533  38.7731 0000903  90.0344 199.2071 15.27570134  5740
STARLINK-1301,45361,53.0552,0.0001109,15.30847745,472.5218792635342,474.041523931548,1 45361U 20019B   25294.91667823  .00114010  00000+0  37271-2 0  9993,2 45361  53.0552  48.6446 0001109  65.3443 355.2437 15.30847745  5636
STARLINK-1306,45362,53.0509,0.00057,15.66126897,366.1533256281846,373.84620153866945,1 45362U 20019C   25294.91667823  .00118527  00000+0  11208-2 0  9993,2 45362  53.0509  41.1128 0005700 247.9150 220.0567 15.66126897  5885
STARLINK-1262,45366,53.0546,0.0001305,15.06390131,546.3380432329413,548.1455671010899,1 45366U 20019G   25294.69527310  .00001560  00000+0  12366-3 0  9993,2 45366  53.0546  70.5844 0001305  86.3697 273.7441 15.06390131308788
STARLINK-1273,45367,53.0541,0.0001174,15.06400745,546.3962389688777,548.0223102741584,1 45367U 20019H   25294.65104404  .00001757  00000+0  13684-3 0  9997,2 45367  53.0541  70.7853 0001174  79.5233 280.5889 15.06400745308774
STARLINK-1276,45368,53.0539,0.0001247,15.06433341,546.2457962370445,547.9729526828341,1 45368U 20019J   25294.82056644  .00010053  00000+0  69219-3 0  9993,2 45368  53.0539  70.0248 0001247 105.6582 254.4545 15.06433341308803
STARLINK-1277,45369,53.0551,0.0001432,15.06386414,546.2614815082197,548.2449132607499,1 45369U 20019K   25294.81330362  .00002174  00000+0  16487-3 0  9999,2 45369  53.0551  70.6851 0001432  96.6804 263.4348 15.06386414308793
STARLINK-1281,45370,53.0547,0.0001137,15.06391301,546.4508040862647,548.0256344111212,1 45370U 20019L   25294.67683920  .00001506  00000+0  11998-3 0  9996,2 45370  53.0547  70.6717 0001137  95.2762 264.8357 15.06391301308786
